NORAD_CAT_ID,OBJECT_NAME,OBJECT_TYPE,EPOCH,MEAN_MOTION,ECCENTRICITY,INCLINATION,RA_OF_ASC_NODE,ARG_OF_PERICENTER,MEAN_ANOMALY,BSTAR,MEAN_MOTION_DOT,MEAN_MOTION_DDOT,TLE_LINE0,TLE_LINE1,TLE_LINE2,SEMIMAJOR_AXIS,PERIOD,APOGEE,PERIGEE,DECAYED
53538.0,STARLINK-4118,PAYLOAD,2024-01-12 04:17:15,15.08838224,0.0001809,53.2185,359.3986,118.6126,241.5048,4.9105e-05,4.93e-06,0.0,0 STARLINK-4118,1 53538U 22101M   24012.17865358  .00000493  00000-0  49105-4 0  9991,2 53538  53.2185 359.3986 0001809 118.6126 241.5048 15.08838224 77410,6917.886,95.438,541.002,538.499,0.0
53538.0,STARLINK-4118,PAYLOAD,2024-01-12 09:03:25,15.08840411,0.0001563,53.2188,358.5037,93.172,266.9451,5.9176e-05,6.54e-06,0.0,0 STARLINK-4118,1 53538U 22101M   24012.37737394  .00000654  00000-0  59176-4 0  9999,2 53538  53.2188 358.5037 0001563  93.1720 266.9451 15.08840411 78135,6917.879,95.438,540.825,538.663,0.0
53538.0,STARLINK-4118,PAYLOAD,2024-01-13 04:08:03,15.08834593,0.0001529,53.2185,354.9343,102.8917,257.2246,2.0139e-05,3.3e-07,0.0,0 STARLINK-4118,1 53538U 22101M   24013.17226074  .00000033  00000-0  20139-4 0  9994,2 53538  53.2185 354.9343 0001529 102.8917 257.2246 15.08834593 77565,6917.897,95.438,540.82,538.704,0.0
53538.0,STARLINK-4118,PAYLOAD,2024-01-13 05:43:26,15.0883799,0.0001548,53.2184,354.6369,101.4868,258.6299,4.9089e-05,4.93e-06,0.0,0 STARLINK-4118,1 53538U 22101M   24013.23849816  .00000493  00000-0  49089-4 0  9991,2 53538  53.2184 354.6369 0001548 101.4868 258.6299 15.08837990 78265,6917.887,95.438,540.822,538.681,0.0
53538.0,STARLINK-4118,PAYLOAD,2024-01-14 07:09:36,15.08841141,0.0001584,53.2191,349.8801,100.2009,259.9162,8.7336e-05,1.102e-05,0.0,0 STARLINK-4118,1 53538U 22101M   24014.29833927  .00001102  00000-0  87336-4 0  9999,2 53538  53.2191 349.8801 0001584 100.2009 259.9162 15.08841141 77731,6917.877,95.437,540.838,538.646,0.0
53538.0,STARLINK-4118,PAYLOAD,2024-01-14 23:03:28,15.08829654,0.0001779,53.2198,346.9063,109.0002,251.1183,0.00021153,3.079e-05,0.0,0 STARLINK-4118,1 53538U 22101M   24014.96074420  .00003079  00000-0  21153-3 0  9997,2 53538  53.2198 346.9063 0001779 109.0002 251.1183 15.08829654 78522,6917.912,95.438,541.008,538.546,0.0
53538.0,STARLINK-4118,PAYLOAD,2024-01-15 07:00:23,15.08852855,0.000154,53.2184,345.42,88.4689,271.6479,0.00013101,1.798e-05,0.0,0 STARLINK-4118,1 53538U 22101M   24015.29193362  .00001798  00000-0  13101-3 0  9991,2 53538  53.2184 345.4200 0001540  88.4689 271.6479 15.08852855 78570,6917.841,95.437,540.771,538.641,0.0
53538.0,STARLINK-4118,PAYLOAD,2024-01-15 22:54:15,15.08835766,0.0001535,53.2182,342.4433,87.5152,272.6016,3.6293e-05,2.9e-06,0.0,0 STARLINK-4118,1 53538U 22101M   24015.95434945  .00000290  00000-0  36293-4 0  9993,2 53538  53.2182 342.4433 0001535  87.5152 272.6016 15.08835766 77986,6917.893,95.438,540.82,538.696,0.0
53538.0,STARLINK-4118,PAYLOAD,2024-01-16 02:05:02,15.08825636,0.0001111,53.2189,341.854,63.9218,296.1888,-7.0329e-05,-1.406e-05,0.0,0 STARLINK-4118,1 53538U 22101M   24016.08683942 -.00001406  00000-0 -70329-4 0  9991,2 53538  53.2189 341.8540 0001111  63.9218 296.1888 15.08825636 78003,6917.924,95.438,540.558,539.021,0.0
53538.0,STARLINK-4118,PAYLOAD,2024-01-16 03:40:25,15.08830341,0.0001396,53.2187,341.5599,79.3113,280.8036,-3.721e-05,-8.8e-06,0.0,0 STARLINK-4118,1 53538U 22101M   24016.15307649 -.00000880  00000-0 -37210-4 0  9993,2 53538  53.2187 341.5599 0001396  79.3113 280.8036 15.08830341 78703,6917.91,95.438,540.741,538.809,0.0
53538.0,STARLINK-4118,PAYLOAD,2024-01-17 03:31:10,15.08864416,0.0001396,53.217,337.0936,97.3632,262.7519,0.00016833,2.394e-05,0.0,0 STARLINK-4118,1 53538U 22101M   24017.14664785  .00002394  00000-0  16833-3 0  9997,2 53538  53.2170 337.0936 0001396  97.3632 262.7519 15.08864416 78161,6917.806,95.436,540.636,538.705,0.0
53538.0,STARLINK-4118,PAYLOAD,2024-01-18 03:21:59,15.08834278,0.0001376,53.2171,332.641,89.5104,270.6046,0.00016793,2.385e-05,0.0,0 STARLINK-4118,1 53538U 22101M   24018.14027011  .00002385  00000-0  16793-3 0  9998,2 53538  53.2171 332.6410 0001376  89.5104 270.6046 15.08834278 78318,6917.898,95.438,540.715,538.811,0.0
53538.0,STARLINK-4118,PAYLOAD,2024-01-18 06:32:45,15.08835602,0.0001559,53.218,332.0392,93.123,266.9941,0.00021235,3.093e-05,0.0,0 STARLINK-4118,1 53538U 22101M   24018.27274836  .00003093  00000-0  21235-3 0  9995,2 53538  53.2180 332.0392 0001559  93.1230 266.9941 15.08835602 79028,6917.894,95.438,540.837,538.68,0.0
53538.0,STARLINK-4118,PAYLOAD,2024-01-19 03:12:45,15.08856815,0.0001708,53.2177,328.1701,108.1396,251.9782,-1.9347e-06,-3.19e-06,0.0,0 STARLINK-4118,1 53538U 22101M   24019.13385581 -.00000319  00000-0 -19347-5 0  9994,2 53538  53.2177 328.1701 0001708 108.1396 251.9782 15.08856815 78463,6917.829,95.436,540.876,538.512,0.0
53538.0,STARLINK-4118,PAYLOAD,2024-01-19 06:23:31,15.08857671,0.0001696,53.2176,327.5758,107.9389,252.1788,1.4389e-05,-5.9e-07,0.0,0 STARLINK-4118,1 53538U 22101M   24019.26633438 -.00000059  00000-0  14389-4 0  9995,2 53538  53.2176 327.5758 0001696 107.9389 252.1788 15.08857671 79171,6917.826,95.436,540.865,538.518,0.0
53538.0,STARLINK-4118,PAYLOAD,2024-01-19 20:42:00,15.08838407,0.0001664,53.2179,324.8976,118.5547,241.5613,8.1087e-05,1.003e-05,0.0,0 STARLINK-4118,1 53538U 22101M   24019.86250507  .00001003  00000-0  81087-4 0  9991,2 53538  53.2179 324.8976 0001664 118.5547 241.5613 15.08838407 79260,6917.885,95.438,540.901,538.599,0.0
53538.0,STARLINK-4118,PAYLOAD,2024-01-20 01:28:09,15.08842103,0.0001822,53.2176,324.0047,123.0204,237.0963,9.0707e-05,1.156e-05,0.0,0 STARLINK-4118,1 53538U 22101M   24020.06122192  .00001156  00000-0  90707-4 0  9991,2 53538  53.2176 324.0047 0001822 123.0204 237.0963 15.08842103 78608,6917.874,95.437,540.999,538.479,0.0
53538.0,STARLINK-4118,PAYLOAD,2024-01-20 06:14:18,15.08843709,0.0001537,53.2179,323.1164,109.7515,250.3643,0.00011857,1.6e-05,0.0,0 STARLINK-4118,1 53538U 22101M   24020.25994186  .00001600  00000-0  11857-3 0  9994,2 53538  53.2179 323.1164 0001537 109.7515 250.3643 15.08843709 79326,6917.869,95.437,540.797,538.671,0.0
53538.0,STARLINK-4118,PAYLOAD,2024-01-21 01:18:57,15.08841582,0.0001841,53.2177,319.5447,121.0625,239.0548,-1.0422e-05,-4.54e-06,0.0,0 STARLINK-4118,1 53538U 22101M   24021.05482798 -.00000454  00000-0 -10422-4 0  9990,2 53538  53.2177 319.5447 0001841 121.0625 239.0548 15.08841582 78755,6917.876,95.437,541.014,538.467,0.0
53538.0,STARLINK-4118,PAYLOAD,2024-01-21 18:48:11,15.08837454,0.000133,53.2179,316.2794,93.3795,266.735,0.00012272,1.666e-05,0.0,0 STARLINK-4118,1 53538U 22101M   24021.78347037  .00001666  00000-0  12272-3 0  9994,2 53538  53.2179 316.2794 0001330  93.3795 266.7350 15.08837454 79558,6917.888,95.438,540.673,538.833,0.0
53538.0,STARLINK-4118,PAYLOAD,2024-01-22 02:45:06,15.08851575,0.0001418,53.2169,314.7952,73.8338,286.281,0.00021246,3.096e-05,0.0,0 STARLINK-4118,1 53538U 22101M   24022.11466246  .00003096  00000-0  21246-3 0  9996,2 53538  53.2169 314.7952 0001418  73.8338 286.2810 15.08851575 78916,6917.845,95.437,540.691,538.729,0.0
53538.0,STARLINK-4118,PAYLOAD,2024-01-23 02:35:54,15.08838829,0.0001518,53.2171,310.3343,69.999,290.1166,4.0513e-05,3.57e-06,0.0,0 STARLINK-4118,1 53538U 22101M   24023.10827007  .00000357  00000-0  40513-4 0  9998,2 53538  53.2171 310.3343 0001518  69.9990 290.1166 15.08838829 79068,6917.884,95.438,540.799,538.699,0.0
53538.0,STARLINK-4118,PAYLOAD,2024-01-24 00:51:18,15.08848249,0.0001647,53.2172,306.1713,69.526,290.5909,5.8807e-05,6.48e-06,0.0,0 STARLINK-4118,1 53538U 22101M   24024.03562575  .00000648  00000-0  58807-4 0  9995,2 53538  53.2172 306.1713 0001647  69.5260 290.5909 15.08848249 79204,6917.855,95.437,540.86,538.581,0.0
53538.0,STARLINK-4118,PAYLOAD,2024-01-25 00:42:05,15.08836896,0.0001719,53.2173,301.7125,69.7765,290.3412,7.829e-05,9.58e-06,0.0,0 STARLINK-4118,1 53538U 22101M   24025.02923517  .00000958  00000-0  78290-4 0  9994,2 53538  53.2173 301.7125 0001719  69.7765 290.3412 15.08836896 79353,6917.89,95.438,540.944,538.566,0.0
53538.0,STARLINK-4118,PAYLOAD,2024-01-25 22:57:29,15.08847367,0.0001506,53.2181,297.5475,89.7741,270.3424,-1.5788e-05,-5.39e-06,0.0,0 STARLINK-4118,1 53538U 22101M   24025.95659229 -.00000539  00000-0 -15788-4 0  9992,2 53538  53.2181 297.5475 0001506  89.7741 270.3424 15.08847367 80181,6917.858,95.437,540.765,538.681,0.0
53538.0,STARLINK-4118,PAYLOAD,2024-01-26 00:32:52,15.08838917,0.0001597,53.2185,297.2476,95.9756,264.1418,0.00015597,2.195e-05,0.0,0 STARLINK-4118,1 53538U 22101M   24026.02283254  .00002195  00000-0  15597-3 0  9997,2 53538  53.2185 297.2476 0001597  95.9756 264.1418 15.08838917 80194,6917.884,95.438,540.853,538.644,0.0
53538.0,STARLINK-4118,PAYLOAD,2024-01-26 18:02:07,15.0884179,0.0001639,53.2186,293.979,93.7352,266.3827,0.00016112,2.277e-05,0.0,0 STARLINK-4118,1 53538U 22101M   24026.75147243  .00002277  00000-0  16112-3 0  9999,2 53538  53.2186 293.9790 0001639  93.7352 266.3827 15.08841790 79618,6917.875,95.437,540.874,538.606,0.0
53538.0,STARLINK-4118,PAYLOAD,2024-01-26 22:48:16,15.08843125,0.0001652,53.2185,293.0888,102.2865,257.8312,0.00017226,2.455e-05,0.0,0 STARLINK-4118,1 53538U 22101M   24026.95019131  .00002455  00000-0  17226-3 0  9990,2 53538  53.2185 293.0888 0001652 102.2865 257.8312 15.08843125 80335,6917.871,95.437,540.879,538.593,0.0
53538.0,STARLINK-4118,PAYLOAD,2024-01-27 21:03:40,15.08838316,0.0001677,53.219,288.928,105.0071,255.1107,2.6184e-05,1.29e-06,0.0,0 STARLINK-4118,1 53538U 22101M   24027.87755758  .00000129  00000-0  26184-4 0  9994,2 53538  53.2190 288.9280 0001677 105.0071 255.1107 15.08838316 80471,6917.886,95.438,540.911,538.59,0.0
53538.0,STARLINK-4118,PAYLOAD,2024-01-28 00:14:27,15.08838264,0.000163,53.2186,288.3331,101.7271,258.3904,1.5266e-05,-4.5e-07,0.0,0 STARLINK-4118,1 53538U 22101M   24028.01003750 -.00000045  00000-0  15266-4 0  9996,2 53538  53.2186 288.3331 0001630 101.7271 258.3904 15.08838264 79808,6917.886,95.438,540.878,538.623,0.0
